ION SCV-004             
1 50993U 22002K   26068.68892644  .00006538  00000+0  23198-3 0  9998
2 50993  97.2961 128.2294 0007216   1.6783 358.4480 15.29369331230088
STARLINK-30279          
1 57885U 23144X   26068.00004630  .00057324  00000+0  21326-2 0  9998
2 57885  43.0000 288.7150 0001487 259.3260 199.1729 15.26701549  5788
